NORAD_CAT_ID,OBJECT_NAME,OBJECT_TYPE,EPOCH,MEAN_MOTION,ECCENTRICITY,INCLINATION,RA_OF_ASC_NODE,ARG_OF_PERICENTER,MEAN_ANOMALY,BSTAR,MEAN_MOTION_DOT,MEAN_MOTION_DDOT,TLE_LINE0,TLE_LINE1,TLE_LINE2,SEMIMAJOR_AXIS,PERIOD,APOGEE,PERIGEE,DECAYED
51998.0,STARLINK-3618,PAYLOAD,2024-08-17 00:48:15,15.08852284,0.0001161,53.2163,56.4069,92.3843,267.7282,0.00048267,7.405e-05,0.0,0 STARLINK-3618,1 51998U 22025AU  24230.03351248  .00007405  00000-0  48267-3 0  9996,2 51998  53.2163  56.4069 0001161  92.3843 267.7282 15.08852284136436,6917.843,95.437,540.511,538.905,0.0
51998.0,STARLINK-3618,PAYLOAD,2024-08-17 11:55:57,15.08819919,2.45e-05,53.2231,54.3242,98.5113,261.5907,-0.00046386,-7.658e-05,0.0,0 STARLINK-3618,1 51998U 22025AU  24230.49719787 -.00007658  00000-0 -46386-3 0  9994,2 51998  53.2231  54.3242 0000245  98.5113 261.5907 15.08819919136504,6917.942,95.439,539.976,539.637,0.0
51998.0,STARLINK-3618,PAYLOAD,2024-08-18 11:46:44,15.08839014,4.1e-05,53.2222,49.8668,70.3026,289.801,-0.00016196,-2.864e-05,0.0,0 STARLINK-3618,1 51998U 22025AU  24231.49079260 -.00002864  00000-0 -16196-3 0  9990,2 51998  53.2222  49.8668 0000410  70.3026 289.8010 15.08839014136652,6917.883,95.438,540.032,539.465,0.0
51998.0,STARLINK-3618,PAYLOAD,2024-08-18 19:43:39,15.08850298,0.0001193,53.2165,48.379,96.0965,264.0163,0.00036122,5.467e-05,0.0,0 STARLINK-3618,1 51998U 22025AU  24231.82198811  .00005467  00000-0  36122-3 0  9992,2 51998  53.2165  48.3790 0001193  96.0965 264.0163 15.08850298136701,6917.849,95.437,540.539,538.889,0.0
51998.0,STARLINK-3618,PAYLOAD,2024-08-19 11:37:31,15.08847623,0.0001264,53.2166,45.4051,91.5536,268.5601,0.00070656,0.00010977,0.0,0 STARLINK-3618,1 51998U 22025AU  24232.48439240  .00010977  00000-0  70656-3 0  9991,2 51998  53.2166  45.4051 0001264  91.5536 268.5601 15.08847623136808,6917.857,95.437,540.597,538.848,0.0
51998.0,STARLINK-3618,PAYLOAD,2024-08-20 05:06:46,15.08839604,0.00013,53.2169,42.132,87.3476,272.7665,0.00055042,8.483e-05,0.0,0 STARLINK-3618,1 51998U 22025AU  24233.21303827  .00008483  00000-0  55042-3 0  9995,2 51998  53.2169  42.1320 0001300  87.3476 272.7665 15.08839604136910,6917.882,95.438,540.646,538.847,0.0
51998.0,STARLINK-3618,PAYLOAD,2024-08-20 14:39:05,15.08843177,0.00012,53.2169,40.3497,86.1216,273.9913,0.00043734,6.68e-05,0.0,0 STARLINK-3618,1 51998U 22025AU  24233.61047802  .00006680  00000-0  43734-3 0  9999,2 51998  53.2169  40.3497 0001200  86.1216 273.9913 15.08843177135461,6917.871,95.437,540.566,538.906,0.0
51998.0,STARLINK-3618,PAYLOAD,2024-08-21 11:19:05,15.08847011,0.0001247,53.2161,36.4828,90.575,269.5385,0.00033921,5.116e-05,0.0,0 STARLINK-3618,1 51998U 22025AU  24234.47159689  .00005116  00000-0  33921-3 0  9991,2 51998  53.2161  36.4828 0001247  90.5750 269.5385 15.08847011137108,6917.859,95.437,540.587,538.861,0.0
51998.0,STARLINK-3618,PAYLOAD,2024-08-21 14:29:52,15.0884311,0.0001368,53.2162,35.886,95.0001,265.1148,0.00019538,2.823e-05,0.0,0 STARLINK-3618,1 51998U 22025AU  24234.60407735  .00002823  00000-0  19538-3 0  9994,2 51998  53.2162  35.8860 0001368  95.0001 265.1148 15.08843110135610,6917.871,95.437,540.682,538.79,0.0
51998.0,STARLINK-3618,PAYLOAD,2024-08-21 16:05:15,15.08843561,0.0001374,53.218,35.5901,91.8642,268.2507,0.0002114,3.078e-05,0.0,0 STARLINK-3618,1 51998U 22025AU  24234.67031805  .00003078  00000-0  21140-3 0  9997,2 51998  53.2180  35.5901 0001374  91.8642 268.2507 15.08843561135629,6917.87,95.437,540.685,538.784,0.0
51998.0,STARLINK-3618,PAYLOAD,2024-08-22 03:12:57,15.08845402,0.000122,53.2176,33.5056,83.9694,276.1437,0.0002325,3.415e-05,0.0,0 STARLINK-3618,1 51998U 22025AU  24235.13399680  .00003415  00000-0  23250-3 0  9996,2 51998  53.2176  33.5056 0001220  83.9694 276.1437 15.08845402137204,6917.864,95.437,540.573,538.885,0.0
